{
  "type": "FeatureCollection",
  "features": [
    {
      "type": "Feature",
      "properties": {
        "norad_id": 30547,
        "name": "FENGYUN 1C DEB",
        "group": "fengyun-1c-debris",
        "lat": -9.126280572727214,
        "lon": 17.74289888679124,
        "alt_km": 701.7034891506528,
        "timestamp": "2025-12-21T20:41:08.238124+00:00",
        "meta_object_name": "FENGYUN 1C DEB",
        "meta_object_id": "1999-025AKM",
        "meta_epoch": "2025-12-21T13:23:49.693920",
        "meta_mean_motion": 14.37764418,
        "meta_eccentricity": 0.00955136,
        "meta_inclination": 98.9017,
        "meta_ra_of_asc_node": 198.8712,
        "meta_arg_of_pericenter": 191.2853,
        "meta_mean_anomaly": 226.8846,
        "meta_ephemeris_type": 0,
        "meta_classification_type": "U",
        "meta_norad_cat_id": 30547,
        "meta_element_set_no": 999,
        "meta_rev_at_epoch": 98849,
        "meta_bstar": 0.00020239382,
        "meta_mean_motion_dot": 5.93e-06,
        "meta_mean_motion_ddot": 0,
        "tle_line1": "1 30547U 99025AKM 25355.55821405  .00000593  00000+0  20239-3 0  9999",
        "tle_line2": "2 30547  98.9017 198.8712 0095513 191.2853 226.8846 14.37764418988492"
      },
      "geometry": {
        "type": "Point",
        "coordinates": [
          17.74289888679124,
          -9.126280572727214
        ]
      }
    },
    {
      "type": "Feature",
      "properties": {
        "norad_id": 30548,
        "name": "FENGYUN 1C DEB",
        "group": "fengyun-1c-debris",
        "lat": 80.30713180292416,
        "lon": 162.59151055512228,
        "alt_km": 831.933407027781,
        "timestamp": "2025-12-21T20:41:08.238133+00:00",
        "meta_object_name": "FENGYUN 1C DEB",
        "meta_object_id": "1999-025AKN",
        "meta_epoch": "2025-12-19T11:53:03.591744",
        "meta_mean_motion": 14.26940048,
        "meta_eccentricity": 0.0068156,
        "meta_inclination": 99.6826,
        "meta_ra_of_asc_node": 251.6731,
        "meta_arg_of_pericenter": 316.757,
        "meta_mean_anomaly": 221.8405,
        "meta_ephemeris_type": 0,
        "meta_classification_type": "U",
        "meta_norad_cat_id": 30548,
        "meta_element_set_no": 999,
        "meta_rev_at_epoch": 14191,
        "meta_bstar": 0.0013661,
        "meta_mean_motion_dot": 3.351e-05,
        "meta_mean_motion_ddot": 0,
        "tle_line1": "1 30548U 99025AKN 25353.49518046  .00003351  00000+0  13661-2 0  9990",
        "tle_line2": "2 30548  99.6826 251.6731 0068156 316.7570 221.8405 14.26940048141918"
      },
      "geometry": {
        "type": "Point",
        "coordinates": [
          162.59151055512228,
          80.30713180292416
        ]
      }
    },
    {
      "type": "Feature",
      "properties": {
        "norad_id": 30549,
        "name": "FENGYUN 1C DEB",
        "group": "fengyun-1c-debris",
        "lat": 71.16556612280978,
        "lon": 89.70143242930565,
        "alt_km": 1085.5949189026987,
        "timestamp": "2025-12-21T20:41:08.238143+00:00",
        "meta_object_name": "FENGYUN 1C DEB",
        "meta_object_id": "1999-025AKP",
        "meta_epoch": "2025-12-20T13:25:00.998112",
        "meta_mean_motion": 13.98769507,
        "meta_eccentricity": 0.0288384,
        "meta_inclination": 98.4773,
        "meta_ra_of_asc_node": 114.4218,
        "meta_arg_of_pericenter": 235.3338,
        "meta_mean_anomaly": 122.034,
        "meta_ephemeris_type": 0,
        "meta_classification_type": "U",
        "meta_norad_cat_id": 30549,
        "meta_element_set_no": 999,
        "meta_rev_at_epoch": 95403,
        "meta_bstar": 0.0016536,
        "meta_mean_motion_dot": 3.358e-05,
        "meta_mean_motion_ddot": 0,
        "tle_line1": "1 30549U 99025AKP 25354.55903933  .00003358  00000+0  16536-2 0  9993",
        "tle_line2": "2 30549  98.4773 114.4218 0288384 235.3338 122.0340 13.98769507954030"
      },
      "geometry": {
        "type": "Point",
        "coordinates": [
          89.70143242930565,
          71.16556612280978
        ]
      }
    },
    {
      "type": "Feature",
      "properties": {
        "norad_id": 30550,
        "name": "FENGYUN 1C DEB",
        "group": "fengyun-1c-debris",
        "lat": -3.413568836531813,
        "lon": -108.35166094556747,
        "alt_km": 878.0649610702558,
        "timestamp": "2025-12-21T20:41:08.238152+00:00",
        "meta_object_name": "FENGYUN 1C DEB",
        "meta_object_id": "1999-025AKQ",
        "meta_epoch": "2025-12-21T11:16:09.410304",
        "meta_mean_motion": 14.02460974,
        "meta_eccentricity": 0.01316239,
        "meta_inclination": 99.0539,
        "meta_ra_of_asc_node": 250.7135,
        "meta_arg_of_pericenter": 273.3168,
        "meta_mean_anomaly": 262.0214,
        "meta_ephemeris_type": 0,
        "meta_classification_type": "U",
        "meta_norad_cat_id": 30550,
        "meta_element_set_no": 999,
        "meta_rev_at_epoch": 95517,
        "meta_bstar": 0.0020033524,
        "meta_mean_motion_dot": 3.279e-05,
        "meta_mean_motion_ddot": 0,
        "tle_line1": "1 30550U 99025AKQ 25355.46955336  .00003279  00000+0  20034-2 0  9990",
        "tle_line2": "2 30550  99.0539 250.7135 0131623 273.3168 262.0214 14.02460974955170"
      },
      "geometry": {
        "type": "Point",
        "coordinates": [
          -108.35166094556747,
          -3.413568836531813
        ]
      }
    },
    {
      "type": "Feature",
      "properties": {
        "norad_id": 30552,
        "name": "FENGYUN 1C DEB",
        "group": "fengyun-1c-debris",
        "lat": -73.21997838365232,
        "lon": 159.0940337075991,
        "alt_km": 710.9733630439014,
        "timestamp": "2025-12-21T20:41:08.238161+00:00",
        "meta_object_name": "FENGYUN 1C DEB",
        "meta_object_id": "1999-025AKS",
        "meta_epoch": "2025-12-20T20:16:32.442816",
        "meta_mean_motion": 14.54947357,
        "meta_eccentricity": 0.0015251,
        "meta_inclination": 98.8346,
        "meta_ra_of_asc_node": 126.9697,
        "meta_arg_of_pericenter": 229.7378,
        "meta_mean_anomaly": 130.2485,
        "meta_ephemeris_type": 0,
        "meta_classification_type": "U",
        "meta_norad_cat_id": 30552,
        "meta_element_set_no": 999,
        "meta_rev_at_epoch": 97770,
        "meta_bstar": 0.0018815,
        "meta_mean_motion_dot": 8.063e-05,
        "meta_mean_motion_ddot": 0,
        "tle_line1": "1 30552U 99025AKS 25354.84481994  .00008063  00000+0  18815-2 0  9997",
        "tle_line2": "2 30552  98.8346 126.9697 0015251 229.7378 130.2485 14.54947357977709"
      },
      "geometry": {
        "type": "Point",
        "coordinates": [
          159.0940337075991,
          -73.21997838365232
        ]
      }
    },
    {
      "type": "Feature",
      "properties": {
        "norad_id": 30553,
        "name": "FENGYUN 1C DEB",
        "group": "fengyun-1c-debris",
        "lat": -17.430237648421755,
        "lon": -91.02438741205076,
        "alt_km": 653.6756094882821,
        "timestamp": "2025-12-21T20:41:08.238170+00:00",
        "meta_object_name": "FENGYUN 1C DEB",
        "meta_object_id": "1999-025AKT",
        "meta_epoch": "2025-12-21T05:06:59.154624",
        "meta_mean_motion": 14.72572494,
        "meta_eccentricity": 0.00196997,
        "meta_inclination": 99.1306,
        "meta_ra_of_asc_node": 91.1418,
        "meta_arg_of_pericenter": 126.5343,
        "meta_mean_anomaly": 233.7679,
        "meta_ephemeris_type": 0,
        "meta_classification_type": "U",
        "meta_norad_cat_id": 30553,
        "meta_element_set_no": 999,
        "meta_rev_at_epoch": 98598,
        "meta_bstar": 0.0020012072,
        "meta_mean_motion_dot": 0.00012726,
        "meta_mean_motion_ddot": 0,
        "tle_line1": "1 30553U 99025AKT 25355.21318466  .00012726  00000+0  20012-2 0  9996",
        "tle_line2": "2 30553  99.1306  91.1418 0019699 126.5343 233.7679 14.72572494985989"
      },
      "geometry": {
        "type": "Point",
        "coordinates": [
          -91.02438741205076,
          -17.430237648421755
        ]
      }
    },
    {
      "type": "Feature",
      "properties": {
        "norad_id": 30555,
        "name": "FENGYUN 1C DEB",
        "group": "fengyun-1c-debris",
        "lat": 81.21066896494477,
        "lon": -45.232544037077886,
        "alt_km": 842.9393460424144,
        "timestamp": "2025-12-21T20:41:08.238179+00:00",
        "meta_object_name": "FENGYUN 1C DEB",
        "meta_object_id": "1999-025AKV",
        "meta_epoch": "2025-12-21T01:57:01.104192",
        "meta_mean_motion": 14.20848892,
        "meta_eccentricity": 0.00430511,
        "meta_inclination": 98.7567,
        "meta_ra_of_asc_node": 48.5328,
        "meta_arg_of_pericenter": 247.3074,
        "meta_mean_anomaly": 172.8345,
        "meta_ephemeris_type": 0,
        "meta_classification_type": "U",
        "meta_norad_cat_id": 30555,
        "meta_element_set_no": 999,
        "meta_rev_at_epoch": 97054,
        "meta_bstar": 0.00096100814,
        "meta_mean_motion_dot": 2.053e-05,
        "meta_mean_motion_ddot": 0,
        "tle_line1": "1 30555U 99025AKV 25355.08126278  .00002053  00000+0  96101-3 0  9996",
        "tle_line2": "2 30555  98.7567  48.5328 0043051 247.3074 172.8345 14.20848892970543"
      },
      "geometry": {
        "type": "Point",
        "coordinates": [
          -45.232544037077886,
          81.21066896494477
        ]
      }
    }
  ]
}